NUSAT-47                
1 66743U 25276CF  26190.93584006  .00004076  00000+0  18941-3 0  9993
2 66743  97.4184 264.1849 0000178 310.1908  49.9312 15.20548776 33888
NUSAT-53 (JANE GOODALL) 
1 68432U 26067S   26191.32644029  .00003542  00000+0  17346-3 0  9990
2 68432  97.4566 149.5101 0001206   4.9646 355.1601 15.18818510 15455
NUSAT-54 (BRANCA MARQU*)
1 68442U 26067AC  26191.11757007  .00003551  00000+0  17813-3 0  9998
2 68442  97.4548 149.1548 0004413  16.7434 343.3945 15.17965627 15413
